GPS BIIA-10 (PRN 32)    
1 20959U 90103A   13057.93131381  .00000040  00000-0  00000+0 0  8850
2 20959  54.4217 228.3266 0116827 336.5188 160.7631  2.00555146162997
GPS BIIA-14 (PRN 26)    
1 22014U 92039A   13058.57603693  .00000006  00000-0  00000+0 0  6743
2 22014  56.1542 288.5651 0209964  69.7463 323.1397  2.00565425144741
GPS BIIA-15 (PRN 27)    
1 22108U 92058A   13058.34855233 -.00000060  00000-0  00000+0 0  5999
2 22108  56.2470 341.4913 0221974 305.5214 202.3648  2.00572762149919
GPS BIIA-21 (PRN 09)    
1 22700U 93042A   13058.63496819 -.00000060  00000-0  00000+0 0  9213
2 22700  56.3993 343.0568 0169630  93.8187 285.0568  2.00664599144080
GPS BIIA-22 (PRN 30)    
1 22779U 93054A   13057.96110073 -.00000029  00000-0  00000+0 0  5998
2 22779  55.1794  37.5860 0106060  92.2251 308.5253  2.00568564142822
GPS BIIA-23 (PRN 04)    
1 22877U 93068A   13058.43460361  .00000020  00000-0  00000+0 0  2798
2 22877  53.7284 163.1599 0101469  54.3351  39.6236  2.00553126141721
GPS BIIA-24 (PRN 06)    
1 23027U 94016A   13057.00986273  .00000031  00000-0  10000-3 0  2356
2 23027  53.8751  99.8443 0077794 336.8241  22.9144  2.00561968139005
GPS BIIA-25 (PRN 03)    
1 23833U 96019A   13057.03108911  .00000029  00000-0  10000-3 0  4320
2 23833  53.4940  95.3317 0158144  73.1559 288.6593  2.00563074123988
GPS BIIA-26 (PRN 10)    
1 23953U 96041A   13058.45542718  .00000040  00000-0  00000+0 0  9246
2 23953  54.0933 224.3548 0121657  44.7099   4.9469  2.00570325121797
GPS BIIR-2  (PRN 13)    
1 24876U 97035A   13058.63850375  .00000005  00000-0  00000+0 0  3915
2 24876  56.2990 288.9666 0048532 120.0642  60.9764  2.00578711114337
GPS BIIA-28 (PRN 08)    
1 25030U 97067A   13058.21993293 -.00000061  00000-0  00000+0 0  3377
2 25030  57.1984 349.5542 0127839 195.9420 304.6396  2.00573031112228
GPS BIIR-3  (PRN 11)    
1 25933U 99055A   13058.14522693  .00000017  00000-0  10000-3 0  8260
2 25933  50.9187 146.7184 0136607  65.6841 295.7778  2.00561323 98147
GPS BIIR-4  (PRN 20)    
1 26360U 00025A   13058.03982319  .00000035  00000-0  00000+0 0  9184
2 26360  53.2037 220.4193 0053465  73.2134 124.8497  2.00549075 93833
GPS BIIR-5  (PRN 28)    
1 26407U 00040A   13058.31535895 -.00000014  00000-0  00000+0 0  8690
2 26407  56.2825  46.4718 0188718 258.0596 249.2506  2.00567721 92512
GPS BIIR-6  (PRN 14)    
1 26605U 00071A   13058.37290887  .00000007  00000-0  00000+0 0  8847
2 26605  55.8815 287.3373 0068986 244.9028 236.1552  2.00558542 90118
GPS BIIR-7  (PRN 18)    
1 26690U 01004A   13058.29168071  .00000037  00000-0  00000+0 0  7637
2 26690  53.1644 223.4758 0140113 238.5826 272.8941  2.00551846 88520
GPS BIIR-8  (PRN 16)    
1 27663U 03005A   13058.00163196 -.00000014  00000-0  00000+0 0  1958
2 27663  56.3725  46.1196 0070114   0.3935  39.4645  2.00572813 73878
GPS BIIR-9  (PRN 21)    
1 27704U 03010A   13058.51783851  .00000020  00000-0  00000+0 0   788
2 27704  53.3720 163.3985 0201484 235.9739 139.1658  2.00557161 72676
GPS BIIR-10 (PRN 22)    
1 28129U 03058A   13057.82010916  .00000035  00000-0  00000+0 0  6502
2 28129  53.0351 223.6556 0064717 243.8353 257.0612  2.00564750 67367
GPS BIIR-11 (PRN 19)    
1 28190U 04009A   13058.18164433  .00000033  00000-0  00000+0 0  6442
2 28190  55.1207 108.5625 0089114  14.2654  70.8579  2.00563458 65543
GPS BIIR-12 (PRN 23)    
1 28361U 04023A   13058.04614964  .00000010  00000-0  00000+0 0  4636
2 28361  54.8254 284.0794 0082720 194.3077 304.0441  2.00555134 63622
GPS BIIR-13 (PRN 02)    
1 28474U 04045A   13058.40957549  .00000020  00000-0  00000+0 0  3500
2 28474  53.7835 162.2130 0122134 208.7530 193.8152  2.00569272 60997
GPS BIIRM-1 (PRN 17)    
1 28874U 05038A   13058.43090024  .00000033  00000-0  00000+0 0  6109
2 28874  55.2778 105.5616 0084107 233.7537 285.9427  2.00572726 54411
GPS BIIRM-2 (PRN 31)    
1 29486U 06042A   13057.87567244 -.00000062  00000-0  00000+0 0    34
2 29486  56.1909 344.6888 0082172 314.9295  85.8148  2.00578206 47101
GPS BIIRM-3 (PRN 12)    
1 29601U 06052A   13058.51715992 -.00000016  00000-0  00000+0 0   333
2 29601  56.3314  45.0488 0043362   6.4096 179.8685  2.00571059 46029
GPS BIIRM-4 (PRN 15)    
1 32260U 07047A   13057.62752620  .00000012  00000-0  00000+0 0  7414
2 32260  53.9768 281.8138 0051795   7.7375  31.1958  2.00557900 39401
GPS BIIRM-5 (PRN 29)    
1 32384U 07062A   13058.54100543  .00000032  00000-0  00000+0 0  7772
2 32384  55.3130 106.0573 0021612 294.1859 176.2325  2.00561876 38148
GPS BIIRM-6 (PRN 07)    
1 32711U 08012A   13057.98402710 -.00000062  00000-0  10000-3 0  5339
2 32711  55.9038 344.4471 0061290 195.0735 164.7680  2.00559959 36343
GPS BIIRM-8 (PRN 05)    
1 35752U 09043A   13058.50629900  .00000041  00000-0  00000+0 0  2915
2 35752  54.3887 223.2097 0030115  14.1599  27.5934  2.00574997 25924
GPS BIIF-1  (PRN 25)    
1 36585U 10022A   13058.54040944 -.00000021  00000-0  00000+0 0  1040
2 36585  55.6920  42.9140 0021540  26.4746 148.1350  2.00574834 20172
GPS BIIF-2  (PRN 01)    
1 37753U 11036A   13058.22125760  .00000021  00000-0  00000+0 0  5660
2 37753  55.0146 163.3490 0015614  13.6085  16.8064  2.00559719 11852
GPS BIIF-3  (PRN 24)    
1 38833U 12053A   13058.16617267 -.00000063  00000-0  00000+0 0  1147
2 38833  54.9620 342.8915 0007528 354.9650   5.0536  2.00560731  2914
